ONEWEB-0568             
1 56062U 23043S   25216.25560592 -.00000034  00000+0 -12364-3 0  9998
2 56062  87.9050 291.9390 0001856 106.4461 253.6874 13.16593470117277
ONEWEB-0574             
1 56063U 23043T   25216.55383675  .00000038  00000+0  59935-4 0  9995
2 56063  87.9270 307.1384 0002165 102.5334 257.6042 13.21826793116447
ONEWEB-0575             
1 56064U 23043U   25216.24927053  .00000024  00000+0  29405-4 0  9990
2 56064  87.9040 291.9471 0002260 109.7248 250.4127 13.16595443117264
ONEWEB-0576             
1 56065U 23043V   25216.23027216  .00000005  00000+0 -19282-4 0  9994
2 56065  87.9049 291.9420 0001985 104.5205 255.6147 13.16594276117258
ONEWEB-0577             
1 56066U 23043W   25216.61659249 -.00000057  00000+0 -18351-3 0  9997
2 56066  87.9054 291.8657 0002475 112.3391 247.8002 13.16594623117332
ONEWEB-0578             
1 56067U 23043X   25216.31413365 -.00000101  00000+0 -27615-3 0  9995
2 56067  87.9269 307.1966 0001913 104.3900 255.7447 13.21825458116371
ONEWEB-0579             
1 56068U 23043Y   25216.30467052 -.00000026  00000+0 -95386-4 0  9994
2 56068  87.9270 307.1843 0002206  93.8775 266.2611 13.21827269116389
ONEWEB-0581             
1 56069U 23043Z   25216.24293639 -.00000033  00000+0 -11937-3 0  9993
2 56069  87.9046 291.9674 0002552 104.1219 256.0196 13.16595463118161
ONEWEB-0609             
1 56070U 23043AA  25216.32892498 -.00000051  00000+0 -16919-3 0  9997
2 56070  87.9085 322.4093 0001852  97.4590 262.6750 13.15549782114773
ONEWEB-0613             
1 56071U 23043AB  25216.32417037 -.00000063  00000+0 -20239-3 0  9993
2 56071  87.9090 322.4230 0002075  94.2084 265.9283 13.15549966114775
ONEWEB-0630             
1 56072U 23043AC  25216.31940552 -.00000343  00000+0 -94614-3 0  9995
2 56072  87.9084 322.3996 0002069  90.5372 269.5995 13.15548157114769
ONEWEB-0632             
1 56073U 23043AD  25216.31465171 -.00000248  00000+0 -69278-3 0  9997
2 56073  87.9087 322.4207 0002164 100.6356 259.5018 13.15548420114768
ONEWEB-0633             
1 56074U 23043AE  25216.30832614 -.00000088  00000+0 -26694-3 0  9994
2 56074  87.9079 322.3879 0001890  86.1813 273.9533 13.15547214114745
ONEWEB-0634             
1 56075U 23043AF  25216.29405791  .00000138  00000+0  33240-3 0  9994
2 56075  87.9093 322.4293 0001610  96.8309 263.3004 13.15550388114732
ONEWEB-0635             
1 56076U 23043AG  25216.59354381  .00000210  00000+0  52283-3 0  9995
2 56076  87.9062 322.3423 0002245 103.5727 256.5654 13.15548704114800
ONEWEB-0636             
1 56077U 23043AH  25216.58560608  .00000104  00000+0  24309-3 0  9996
2 56077  87.9069 322.3571 0002158 102.5962 257.5410 13.15550400114789
ONEWEB-0637             
1 56078U 23043AJ  25216.35112618  .00000141  00000+0  34065-3 0  9997
2 56078  87.9077 322.4148 0001957 110.5881 249.5460 13.15548157114776
