[{"OBJECT_NAME":"ONEWEB-0568","OBJECT_ID":"2023-043S","EPOCH":"2025-08-04T06:08:04.351488","MEAN_MOTION":13.1659347,"ECCENTRICITY":0.0001856,"INCLINATION":87.905,"RA_OF_ASC_NODE":291.939,"ARG_OF_PERICENTER":106.4461,"MEAN_ANOMALY":253.6874,"EPHEMERIS_TYPE":0,"CLASSIFICATION_TYPE":"U","NORAD_CAT_ID":56062,"ELEMENT_SET_NO":999,"REV_AT_EPOCH":11727,"BSTAR":-0.00012364,"MEAN_MOTION_DOT":-3.4e-7,"MEAN_MOTION_DDOT":0},{"OBJECT_NAME":"ONEWEB-0574","OBJECT_ID":"2023-043T","EPOCH":"2025-08-04T13:17:31.495200","MEAN_MOTION":13.21826793,"ECCENTRICITY":0.0002165,"INCLINATION":87.927,"RA_OF_ASC_NODE":307.1384,"ARG_OF_PERICENTER":102.5334,"MEAN_ANOMALY":257.6042,"EPHEMERIS_TYPE":0,"CLASSIFICATION_TYPE":"U","NORAD_CAT_ID":56063,"ELEMENT_SET_NO":999,"REV_AT_EPOCH":11644,"BSTAR":5.9935e-5,"MEAN_MOTION_DOT":3.8e-7,"MEAN_MOTION_DDOT":0},{"OBJECT_NAME":"ONEWEB-0575","OBJECT_ID":"2023-043U","EPOCH":"2025-08-04T05:58:56.973792","MEAN_MOTION":13.16595443,"ECCENTRICITY":0.000226,"INCLINATION":87.904,"RA_OF_ASC_NODE":291.9471,"ARG_OF_PERICENTER":109.7248,"MEAN_ANOMALY":250.4127,"EPHEMERIS_TYPE":0,"CLASSIFICATION_TYPE":"U","NORAD_CAT_ID":56064,"ELEMENT_SET_NO":999,"REV_AT_EPOCH":11726,"BSTAR":2.9405e-5,"MEAN_MOTION_DOT":2.4e-7,"MEAN_MOTION_DDOT":0},{"OBJECT_NAME":"ONEWEB-0576","OBJECT_ID":"2023-043V","EPOCH":"2025-08-04T05:31:35.514624","MEAN_MOTION":13.16594276,"ECCENTRICITY":0.0001985,"INCLINATION":87.9049,"RA_OF_ASC_NODE":291.942,"ARG_OF_PERICENTER":104.5205,"MEAN_ANOMALY":255.6147,"EPHEMERIS_TYPE":0,"CLASSIFICATION_TYPE":"U","NORAD_CAT_ID":56065,"ELEMENT_SET_NO":999,"REV_AT_EPOCH":11725,"BSTAR":-1.9282e-5,"MEAN_MOTION_DOT":5.0e-8,"MEAN_MOTION_DDOT":0},{"OBJECT_NAME":"ONEWEB-0577","OBJECT_ID":"2023-043W","EPOCH":"2025-08-04T14:47:53.591136","MEAN_MOTION":13.16594623,"ECCENTRICITY":0.0002475,"INCLINATION":87.9054,"RA_OF_ASC_NODE":291.8657,"ARG_OF_PERICENTER":112.3391,"MEAN_ANOMALY":247.8002,"EPHEMERIS_TYPE":0,"CLASSIFICATION_TYPE":"U","NORAD_CAT_ID":56066,"ELEMENT_SET_NO":999,"REV_AT_EPOCH":11733,"BSTAR":-0.00018351,"MEAN_MOTION_DOT":-5.7e-7,"MEAN_MOTION_DDOT":0},{"OBJECT_NAME":"ONEWEB-0578","OBJECT_ID":"2023-043X","EPOCH":"2025-08-04T07:32:21.147360","MEAN_MOTION":13.21825458,"ECCENTRICITY":0.0001913,"INCLINATION":87.9269,"RA_OF_ASC_NODE":307.1966,"ARG_OF_PERICENTER":104.39,"MEAN_ANOMALY":255.7447,"EPHEMERIS_TYPE":0,"CLASSIFICATION_TYPE":"U","NORAD_CAT_ID":56067,"ELEMENT_SET_NO":999,"REV_AT_EPOCH":11637,"BSTAR":-0.00027615,"MEAN_MOTION_DOT":-1.01e-6,"MEAN_MOTION_DDOT":0},{"OBJECT_NAME":"ONEWEB-0579","OBJECT_ID":"2023-043Y","EPOCH":"2025-08-04T07:18:43.532928","MEAN_MOTION":13.21827269,"ECCENTRICITY":0.0002206,"INCLINATION":87.927,"RA_OF_ASC_NODE":307.1843,"ARG_OF_PERICENTER":93.8775,"MEAN_ANOMALY":266.2611,"EPHEMERIS_TYPE":0,"CLASSIFICATION_TYPE":"U","NORAD_CAT_ID":56068,"ELEMENT_SET_NO":999,"REV_AT_EPOCH":11638,"BSTAR":-9.5386e-5,"MEAN_MOTION_DOT":-2.6e-7,"MEAN_MOTION_DDOT":0},{"OBJECT_NAME":"ONEWEB-0581","OBJECT_ID":"2023-043Z","EPOCH":"2025-08-04T05:49:49.704096","MEAN_MOTION":13.16595463,"ECCENTRICITY":0.0002552,"INCLINATION":87.9046,"RA_OF_ASC_NODE":291.9674,"ARG_OF_PERICENTER":104.1219,"MEAN_ANOMALY":256.0196,"EPHEMERIS_TYPE":0,"CLASSIFICATION_TYPE":"U","NORAD_CAT_ID":56069,"ELEMENT_SET_NO":999,"REV_AT_EPOCH":11816,"BSTAR":-0.00011937,"MEAN_MOTION_DOT":-3.3e-7,"MEAN_MOTION_DDOT":0},{"OBJECT_NAME":"ONEWEB-0609","OBJECT_ID":"2023-043AA","EPOCH":"2025-08-04T07:53:39.118272","MEAN_MOTION":13.15549782,"ECCENTRICITY":0.0001852,"INCLINATION":87.9085,"RA_OF_ASC_NODE":322.4093,"ARG_OF_PERICENTER":97.459,"MEAN_ANOMALY":262.675,"EPHEMERIS_TYPE":0,"CLASSIFICATION_TYPE":"U","NORAD_CAT_ID":56070,"ELEMENT_SET_NO":999,"REV_AT_EPOCH":11477,"BSTAR":-0.00016919,"MEAN_MOTION_DOT":-5.1e-7,"MEAN_MOTION_DDOT":0},{"OBJECT_NAME":"ONEWEB-0613","OBJECT_ID":"2023-043AB","EPOCH":"2025-08-04T07:46:48.319968","MEAN_MOTION":13.15549966,"ECCENTRICITY":0.0002075,"INCLINATION":87.909,"RA_OF_ASC_NODE":322.423,"ARG_OF_PERICENTER":94.2084,"MEAN_ANOMALY":265.9283,"EPHEMERIS_TYPE":0,"CLASSIFICATION_TYPE":"U","NORAD_CAT_ID":56071,"ELEMENT_SET_NO":999,"REV_AT_EPOCH":11477,"BSTAR":-0.00020239,"MEAN_MOTION_DOT":-6.3e-7,"MEAN_MOTION_DDOT":0},{"OBJECT_NAME":"ONEWEB-0630","OBJECT_ID":"2023-043AC","EPOCH":"2025-08-04T07:39:56.636928","MEAN_MOTION":13.15548157,"ECCENTRICITY":0.0002069,"INCLINATION":87.9084,"RA_OF_ASC_NODE":322.3996,"ARG_OF_PERICENTER":90.5372,"MEAN_ANOMALY":269.5995,"EPHEMERIS_TYPE":0,"CLASSIFICATION_TYPE":"U","NORAD_CAT_ID":56072,"ELEMENT_SET_NO":999,"REV_AT_EPOCH":11476,"BSTAR":-0.00094614,"MEAN_MOTION_DOT":-3.43e-6,"MEAN_MOTION_DDOT":0},{"OBJECT_NAME":"ONEWEB-0632","OBJECT_ID":"2023-043AD","EPOCH":"2025-08-04T07:33:05.907744","MEAN_MOTION":13.1554842,"ECCENTRICITY":0.0002164,"INCLINATION":87.9087,"RA_OF_ASC_NODE":322.4207,"ARG_OF_PERICENTER":100.6356,"MEAN_ANOMALY":259.5018,"EPHEMERIS_TYPE":0,"CLASSIFICATION_TYPE":"U","NORAD_CAT_ID":56073,"ELEMENT_SET_NO":999,"REV_AT_EPOCH":11476,"BSTAR":-0.00069278,"MEAN_MOTION_DOT":-2.48e-6,"MEAN_MOTION_DDOT":0},{"OBJECT_NAME":"ONEWEB-0633","OBJECT_ID":"2023-043AE","EPOCH":"2025-08-04T07:23:59.378496","MEAN_MOTION":13.15547214,"ECCENTRICITY":0.000189,"INCLINATION":87.9079,"RA_OF_ASC_NODE":322.3879,"ARG_OF_PERICENTER":86.1813,"MEAN_ANOMALY":273.9533,"EPHEMERIS_TYPE":0,"CLASSIFICATION_TYPE":"U","NORAD_CAT_ID":56074,"ELEMENT_SET_NO":999,"REV_AT_EPOCH":11474,"BSTAR":-0.00026694,"MEAN_MOTION_DOT":-8.8e-7,"MEAN_MOTION_DDOT":0},{"OBJECT_NAME":"ONEWEB-0634","OBJECT_ID":"2023-043AF","EPOCH":"2025-08-04T07:03:26.603424","MEAN_MOTION":13.15550388,"ECCENTRICITY":0.000161,"INCLINATION":87.9093,"RA_OF_ASC_NODE":322.4293,"ARG_OF_PERICENTER":96.8309,"MEAN_ANOMALY":263.3004,"EPHEMERIS_TYPE":0,"CLASSIFICATION_TYPE":"U","NORAD_CAT_ID":56075,"ELEMENT_SET_NO":999,"REV_AT_EPOCH":11473,"BSTAR":0.0003324,"MEAN_MOTION_DOT":1.38e-6,"MEAN_MOTION_DDOT":0},{"OBJECT_NAME":"ONEWEB-0635","OBJECT_ID":"2023-043AG","EPOCH":"2025-08-04T14:14:42.185184","MEAN_MOTION":13.15548704,"ECCENTRICITY":0.0002245,"INCLINATION":87.9062,"RA_OF_ASC_NODE":322.3423,"ARG_OF_PERICENTER":103.5727,"MEAN_ANOMALY":256.5654,"EPHEMERIS_TYPE":0,"CLASSIFICATION_TYPE":"U","NORAD_CAT_ID":56076,"ELEMENT_SET_NO":999,"REV_AT_EPOCH":11480,"BSTAR":0.00052283,"MEAN_MOTION_DOT":2.1e-6,"MEAN_MOTION_DDOT":0},{"OBJECT_NAME":"ONEWEB-0636","OBJECT_ID":"2023-043AH","EPOCH":"2025-08-04T14:03:16.365312","MEAN_MOTION":13.155504,"ECCENTRICITY":0.0002158,"INCLINATION":87.9069,"RA_OF_ASC_NODE":322.3571,"ARG_OF_PERICENTER":102.5962,"MEAN_ANOMALY":257.541,"EPHEMERIS_TYPE":0,"CLASSIFICATION_TYPE":"U","NORAD_CAT_ID":56077,"ELEMENT_SET_NO":999,"REV_AT_EPOCH":11478,"BSTAR":0.00024309,"MEAN_MOTION_DOT":1.04e-6,"MEAN_MOTION_DDOT":0},{"OBJECT_NAME":"ONEWEB-0637","OBJECT_ID":"2023-043AJ","EPOCH":"2025-08-04T08:25:37.301952","MEAN_MOTION":13.15548157,"ECCENTRICITY":0.0001957,"INCLINATION":87.9077,"RA_OF_ASC_NODE":322.4148,"ARG_OF_PERICENTER":110.5881,"MEAN_ANOMALY":249.546,"EPHEMERIS_TYPE":0,"CLASSIFICATION_TYPE":"U","NORAD_CAT_ID":56078,"ELEMENT_SET_NO":999,"REV_AT_EPOCH":11477,"BSTAR":0.00034065,"MEAN_MOTION_DOT":1.41e-6,"MEAN_MOTION_DDOT":0}]
